NORAD_CAT_ID,OBJECT_NAME,OBJECT_TYPE,EPOCH,MEAN_MOTION,ECCENTRICITY,INCLINATION,RA_OF_ASC_NODE,ARG_OF_PERICENTER,MEAN_ANOMALY,BSTAR,MEAN_MOTION_DOT,MEAN_MOTION_DDOT,TLE_LINE0,TLE_LINE1,TLE_LINE2,SEMIMAJOR_AXIS,PERIOD,APOGEE,PERIGEE,DECAYED
52533.0,STARLINK-3951,PAYLOAD,2024-04-11 11:28:32,15.08847132,0.000156,53.2196,19.1676,89.3344,270.7826,4.3508e-05,4.05e-06,0.0,0 STARLINK-3951,1 52533U 22051A   24102.47815132  .00000405  00000-0  43508-4 0  9991,2 52533  53.2196  19.1676 0001560  89.3344 270.7826 15.08847132106254,6917.859,95.437,540.803,538.644,0.0
52533.0,STARLINK-3951,PAYLOAD,2024-04-12 01:47:00,15.08844947,0.0001409,53.2194,16.4871,79.8899,280.2252,-6.2285e-05,-1.279e-05,0.0,0 STARLINK-3951,1 52533U 22051A   24103.07431400 -.00001279  00000-0 -62285-4 0  9995,2 52533  53.2194  16.4871 0001409  79.8899 280.2252 15.08844947106340,6917.865,95.437,540.705,538.756,0.0
52533.0,STARLINK-3951,PAYLOAD,2024-04-12 22:27:01,15.08840178,0.0001467,53.2191,12.6242,86.245,273.871,0.00014877,2.081e-05,0.0,0 STARLINK-3951,1 52533U 22051A   24103.93543041  .00002081  00000-0  14877-3 0  9998,2 52533  53.2191  12.6242 0001467  86.2450 273.8710 15.08840178106402,6917.88,95.438,540.76,538.73,0.0
52533.0,STARLINK-3951,PAYLOAD,2024-04-13 01:37:47,15.08843572,0.0001292,53.2186,12.0295,91.4904,268.6236,0.00010467,1.378e-05,0.0,0 STARLINK-3951,1 52533U 22051A   24104.06790962  .00001378  00000-0  10467-3 0  9998,2 52533  53.2186  12.0295 0001292  91.4904 268.6236 15.08843572106424,6917.869,95.437,540.628,538.841,0.0
52533.0,STARLINK-3951,PAYLOAD,2024-04-14 03:03:58,15.08841065,0.0001413,53.2196,7.2684,78.3117,281.8034,5.3105e-05,5.57e-06,0.0,0 STARLINK-3951,1 52533U 22051A   24105.12775512  .00000557  00000-0  53105-4 0  9995,2 52533  53.2196   7.2684 0001413  78.3117 281.8034 15.08841065106651,6917.877,95.437,540.72,538.765,0.0
52533.0,STARLINK-3951,PAYLOAD,2024-04-14 20:33:10,15.08869603,0.0001198,53.2189,4.005,111.3122,248.7998,0.00011721,1.579e-05,0.0,0 STARLINK-3951,1 52533U 22051A   24105.85637105  .00001579  00000-0  11721-3 0  9992,2 52533  53.2189   4.0050 0001198 111.3122 248.7998 15.08869603106760,6917.79,95.436,540.484,538.826,0.0
52533.0,STARLINK-3951,PAYLOAD,2024-04-14 22:08:34,15.08867012,0.0001192,53.2188,3.7077,91.6213,268.4916,0.00031166,4.679e-05,0.0,0 STARLINK-3951,1 52533U 22051A   24105.92261628  .00004679  00000-0  31166-3 0  9992,2 52533  53.2188   3.7077 0001192  91.6213 268.4916 15.08867012106704,6917.798,95.436,540.487,538.838,0.0
52533.0,STARLINK-3951,PAYLOAD,2024-04-14 23:43:58,15.08836975,0.000137,53.219,3.4045,98.9425,261.1723,-8.5316e-06,-4.24e-06,0.0,0 STARLINK-3951,1 52533U 22051A   24105.98887133 -.00000424  00000-0 -85316-5 0  9997,2 52533  53.2190   3.4045 0001370  98.9425 261.1723 15.08836975106780,6917.89,95.438,540.702,538.807,0.0
52533.0,STARLINK-3951,PAYLOAD,2024-04-15 21:59:22,15.0883505,0.0001319,53.2189,359.2498,86.6408,273.4735,-0.00010586,-1.972e-05,0.0,0 STARLINK-3951,1 52533U 22051A   24106.91623599 -.00001972  00000-0 -10586-3 0  9999,2 52533  53.2189 359.2498 0001319  86.6408 273.4735 15.08835050106850,6917.896,95.438,540.673,538.848,0.0
52533.0,STARLINK-3951,PAYLOAD,2024-04-15 23:34:45,15.08837117,0.0001382,53.2186,358.9506,119.4479,240.6651,-4.8128e-05,-1.054e-05,0.0,0 STARLINK-3951,1 52533U 22051A   24106.98247361 -.00001054  00000-0 -48128-4 0  9990,2 52533  53.2186 358.9506 0001382 119.4479 240.6651 15.08837117106866,6917.889,95.438,540.71,538.798,0.0
52533.0,STARLINK-3951,PAYLOAD,2024-04-16 20:14:46,15.08849639,0.0001284,53.2181,355.0797,86.8132,273.3007,0.00026895,3.996e-05,0.0,0 STARLINK-3951,1 52533U 22051A   24107.84359042  .00003996  00000-0  26895-3 0  9997,2 52533  53.2181 355.0797 0001284  86.8132 273.3007 15.08849639107068,6917.851,95.437,540.604,538.828,0.0
52533.0,STARLINK-3951,PAYLOAD,2024-04-16 21:50:09,15.0885016,0.0001314,53.2178,354.7825,87.6272,272.4871,0.00051365,7.898e-05,0.0,0 STARLINK-3951,1 52533U 22051A   24107.90983219  .00007898  00000-0  51365-3 0  9998,2 52533  53.2178 354.7825 0001314  87.6272 272.4871 15.08850160107004,6917.849,95.437,540.623,538.805,0.0
52533.0,STARLINK-3951,PAYLOAD,2024-04-17 02:36:18,15.08859935,0.0001312,53.2179,353.8886,84.6156,275.4986,0.00084187,0.00013143,0.0,0 STARLINK-3951,1 52533U 22051A   24108.10855027  .00013143  00000-0  84187-3 0  9994,2 52533  53.2179 353.8886 0001312  84.6156 275.4986 15.08859935107030,6917.819,95.436,540.592,538.777,0.0
52533.0,STARLINK-3951,PAYLOAD,2024-04-17 20:05:33,15.08839009,0.0001346,53.2167,350.6096,102.4725,257.6418,0.00016583,2.352e-05,0.0,0 STARLINK-3951,1 52533U 22051A   24108.83719565  .00002352  00000-0  16583-3 0  9995,2 52533  53.2167 350.6096 0001346 102.4725 257.6418 15.08839009107215,6917.883,95.438,540.68,538.817,0.0
52533.0,STARLINK-3951,PAYLOAD,2024-04-17 21:40:57,15.08835327,0.000141,53.2172,350.3217,108.4825,251.6321,1.5615e-05,-3.9e-07,0.0,0 STARLINK-3951,1 52533U 22051A   24108.90343785 -.00000039  00000-0  15615-4 0  9997,2 52533  53.2172 350.3217 0001410 108.4825 251.6321 15.08835327107151,6917.895,95.438,540.735,538.784,0.0
52533.0,STARLINK-3951,PAYLOAD,2024-04-18 19:56:21,15.08828106,0.0001377,53.2155,346.15,110.9785,249.1355,0.00019223,2.772e-05,0.0,0 STARLINK-3951,1 52533U 22051A   24109.83080626  .00002772  00000-0  19223-3 0  9995,2 52533  53.2155 346.1500 0001377 110.9785 249.1355 15.08828106107364,6917.917,95.438,540.734,538.829,0.0
52533.0,STARLINK-3951,PAYLOAD,2024-04-18 21:31:44,15.08835186,0.0001221,53.2164,345.862,99.0529,261.0601,0.00020455,2.969e-05,0.0,0 STARLINK-3951,1 52533U 22051A   24109.89704608  .00002969  00000-0  20455-3 0  9991,2 52533  53.2164 345.8620 0001221  99.0529 261.0601 15.08835186107301,6917.895,95.438,540.605,538.915,0.0
52533.0,STARLINK-3951,PAYLOAD,2024-04-19 00:42:30,15.08847211,0.0001451,53.2173,345.2662,108.0771,252.0379,0.00089487,0.00013985,0.0,0 STARLINK-3951,1 52533U 22051A   24110.02952542  .00013985  00000-0  89487-3 0  9990,2 52533  53.2173 345.2662 0001451 108.0771 252.0379 15.08847211107399,6917.858,95.437,540.727,538.72,0.0
52533.0,STARLINK-3951,PAYLOAD,2024-04-19 21:22:31,15.08859816,0.0001588,53.2185,341.3993,107.3076,252.809,0.00064656,0.00010023,0.0,0 STARLINK-3951,1 52533U 22051A   24110.89063972  .00010023  00000-0  64656-3 0  9996,2 52533  53.2185 341.3993 0001588 107.3076 252.8090 15.08859816107524,6917.82,95.436,540.783,538.586,0.0
52533.0,STARLINK-3951,PAYLOAD,2024-04-20 14:51:45,15.08842075,0.0001418,53.2178,338.127,108.9743,251.1403,-3.6625e-05,-8.71e-06,0.0,0 STARLINK-3951,1 52533U 22051A   24111.61928048 -.00000871  00000-0 -36625-4 0  9999,2 52533  53.2178 338.1270 0001418 108.9743 251.1403 15.08842075107561,6917.874,95.437,540.72,538.758,0.0
52533.0,STARLINK-3951,PAYLOAD,2024-04-20 19:37:55,15.08835078,0.0001612,53.2187,337.2288,115.5734,244.5425,-0.00012305,-2.246e-05,0.0,0 STARLINK-3951,1 52533U 22051A   24111.81800500 -.00002246  00000-0 -12305-3 0  9999,2 52533  53.2187 337.2288 0001612 115.5734 244.5425 15.08835078107666,6917.895,95.438,540.876,538.645,0.0
52533.0,STARLINK-3951,PAYLOAD,2024-04-20 21:13:18,15.08832416,0.0001158,53.2181,336.9322,119.8969,240.2138,-0.00016186,-2.862e-05,0.0,0 STARLINK-3951,1 52533U 22051A   24111.88424633 -.00002862  00000-0 -16186-3 0  9990,2 52533  53.2181 336.9322 0001158 119.8969 240.2138 15.08832416107608,6917.904,95.438,540.57,538.967,0.0
52533.0,STARLINK-3951,PAYLOAD,2024-04-21 00:24:05,15.08820396,0.0001552,53.2184,336.3437,86.1195,273.9974,-0.00034265,-5.734e-05,0.0,0 STARLINK-3951,1 52533U 22051A   24112.01673432 -.00005734  00000-0 -34265-3 0  9998,2 52533  53.2184 336.3437 0001552  86.1195 273.9974 15.08820396107691,6917.94,95.439,540.879,538.732,0.0
52533.0,STARLINK-3951,PAYLOAD,2024-04-21 14:42:34,15.08827818,0.0001322,53.2188,333.6665,86.6626,273.4517,-7.1416e-05,-1.424e-05,0.0,0 STARLINK-3951,1 52533U 22051A   24112.61289779 -.00001424  00000-0 -71416-4 0  9993,2 52533  53.2188 333.6665 0001322  86.6626 273.4517 15.08827818107714,6917.918,95.438,540.697,538.868,0.0
52533.0,STARLINK-3951,PAYLOAD,2024-04-21 21:04:06,15.08839758,0.0001643,53.218,332.4806,70.1441,289.9729,0.00025585,3.786e-05,0.0,0 STARLINK-3951,1 52533U 22051A   24112.87785692  .00003786  00000-0  25585-3 0  9992,2 52533  53.2180 332.4806 0001643  70.1441 289.9729 15.08839758107824,6917.881,95.438,540.883,538.61,0.0
52533.0,STARLINK-3951,PAYLOAD,2024-04-22 00:14:53,15.08843686,0.0001637,53.2173,331.8845,72.5927,287.5244,0.0005863,9.056e-05,0.0,0 STARLINK-3951,1 52533U 22051A   24113.01033765  .00009056  00000-0  58630-3 0  9999,2 52533  53.2173 331.8845 0001637  72.5927 287.5244 15.08843686107775,6917.869,95.437,540.867,538.602,0.0
52533.0,STARLINK-3951,PAYLOAD,2024-04-22 20:54:53,15.08860428,0.0001526,53.2169,328.0185,79.5368,280.5796,0.00064759,0.00010039,0.0,0 STARLINK-3951,1 52533U 22051A   24113.87145285  .00010039  00000-0  64759-3 0  9996,2 52533  53.2169 328.0185 0001526  79.5368 280.5796 15.08860428107901,6917.818,95.436,540.739,538.627,0.0
52533.0,STARLINK-3951,PAYLOAD,2024-04-23 00:05:39,15.08863266,0.0001527,53.2169,327.4239,79.4673,280.6491,0.00066673,0.00010346,0.0,0 STARLINK-3951,1 52533U 22051A   24114.00393098  .00010346  00000-0  66673-3 0  9997,2 52533  53.2169 327.4239 0001527  79.4673 280.6491 15.08863266107998,6917.809,95.436,540.731,538.618,0.0
52533.0,STARLINK-3951,PAYLOAD,2024-04-23 20:45:40,15.08846859,0.0001502,53.2177,323.5555,103.7612,256.3547,-5.9194e-06,-3.82e-06,0.0,0 STARLINK-3951,1 52533U 22051A   24114.86504703 -.00000382  00000-0 -59194-5 0  9991,2 52533  53.2177 323.5555 0001502 103.7612 256.3547 15.08846859108129,6917.859,95.437,540.763,538.685,0.0
52533.0,STARLINK-3951,PAYLOAD,2024-04-24 20:36:27,15.08842628,0.0001406,53.2176,319.0941,101.4106,258.7045,-4.8697e-05,-1.063e-05,0.0,0 STARLINK-3951,1 52533U 22051A   24115.85864612 -.00001063  00000-0 -48697-4 0  9991,2 52533  53.2176 319.0941 0001406 101.4106 258.7045 15.08842628108201,6917.872,95.437,540.71,538.765,0.0
